IRIDIUM 155             
1 43573U 18061E   19228.44465665  .00000055  00000-0  12573-4 0  9992
2 43573  86.3978  20.1067 0001682 108.0660 252.0719 14.34216191 55502
IRIDIUM 154             
1 43574U 18061F   19228.49539807  .00000049  00000-0  10445-4 0  9997
2 43574  86.3982  20.1012 0002314  84.1636 275.9824 14.34217925 55550
IRIDIUM 163             
1 43575U 18061G   19228.47637274  .00000045  00000-0  89723-5 0  9995
2 43575  86.3981  20.1002 0002924  96.8073 263.3456 14.34219001 55527
IRIDIUM 156             
1 43576U 18061H   19228.45099753  .00000041  00000-0  76918-5 0  9996
2 43576  86.3980  20.1152 0002315 101.9064 258.2392 14.34216026 55509
IRIDIUM 164             
1 43577U 18061J   19228.50173910  .00000045  00000-0  91489-5 0  9995
2 43577  86.3982  20.0965 0002383  88.6452 271.5016 14.34216865 55568
IRIDIUM 159             
1 43578U 18061K   19228.47002350  .00000048  00000-0  10035-4 0  9991
2 43578  86.3980  20.0989 0002281  87.9278 272.2179 14.34217836 55521
IRIDIUM 180             
1 43922U 19002A   19228.32998796  .00000063  00000-0  15346-4 0  9999
2 43922  86.3994 317.0004 0003299  76.8412 283.3151 14.34215933 31155
IRIDIUM 176             
1 43923U 19002B   19228.36519323  .00000104  00000-0  12609-4 0  9994
2 43923  86.6129 317.0037 0002700  96.9377 263.2147 14.72249345 31893
IRIDIUM 168             
1 43924U 19002C   19228.53295786  .00000061  00000-0  14884-4 0  9997
2 43924  86.3997 316.9221 0002438  85.9091 274.2384 14.34218487 31128
IRIDIUM 173             
1 43925U 19002D   19228.31096843  .00000057  00000-0  13466-4 0  9997
2 43925  86.3993 317.0052 0002398  90.1923 269.9547 14.34217274 31086
IRIDIUM 169             
1 43926U 19002E   19228.40881516  .00000059  00000-0  13092-4 0  9994
2 43926  87.4076 338.9621 0000367 255.0012 105.1146 14.38625156 31262
IRIDIUM 172             
1 43927U 19002F   19228.51391769  .00000065  00000-0  16222-4 0  9998
2 43927  86.3994 316.9205 0002515  86.9564 273.1920 14.34219993 31118
IRIDIUM 175             
1 43928U 19002G   19228.29103053  .00000114  00000-0  14128-4 0  9999
2 43928  86.6116 316.9871 0001523 110.6173 249.5207 14.72253086 31877
IRIDIUM 171             
1 43929U 19002H   19228.28559543  .00000070  00000-0  17794-4 0  9991
2 43929  86.4004 317.0448 0002355  85.5070 274.6395 14.34218345 31070
IRIDIUM 170             
1 43930U 19002J   19228.30339575  .00000110  00000-0  13549-4 0  9996
2 43930  86.6128 317.0370 0002472 102.5850 257.5644 14.72249220 31896
IRIDIUM 167             
1 43931U 19002K   19228.55832807  .00000070  00000-0  18048-4 0  9994
2 43931  86.3994 316.9025 0003118  75.6429 284.5113 14.34217982 31114
